NORAD_CAT_ID,OBJECT_NAME,OBJECT_TYPE,EPOCH,MEAN_MOTION,ECCENTRICITY,INCLINATION,RA_OF_ASC_NODE,ARG_OF_PERICENTER,MEAN_ANOMALY,BSTAR,MEAN_MOTION_DOT,MEAN_MOTION_DDOT,TLE_LINE0,TLE_LINE1,TLE_LINE2,SEMIMAJOR_AXIS,PERIOD,APOGEE,PERIGEE,DECAYED
51856.0,STARLINK-3568,PAYLOAD,2022-09-17 14:51:48,15.0883686,0.0001443,53.2179,316.2019,67.3119,292.8025,-3.1651e-05,-7.92e-06,0.0,0 STARLINK-3568,1 51856U 22022E   22260.61930619 -.00000792  00000-0 -31651-4 0  9990,2 51856  53.2179 316.2019 0001443  67.3119 292.8025 15.08836860 31462,6917.89,95.438,540.753,538.757,0.0
51856.0,STARLINK-3568,PAYLOAD,2022-09-18 09:56:27,15.08818977,0.0001528,53.2179,312.634,68.0645,292.0509,-3.654e-05,-8.69e-06,0.0,0 STARLINK-3568,1 51856U 22022E   22261.41420161 -.00000869  00000-0 -36540-4 0  9992,2 51856  53.2179 312.6340 0001528  68.0645 292.0509 15.08818977 31586,6917.945,95.439,540.867,538.753,0.0
51856.0,STARLINK-3568,PAYLOAD,2022-09-18 11:31:50,15.08820656,0.000152,53.2179,312.3366,65.5097,294.6054,-2.9817e-05,-7.62e-06,0.0,0 STARLINK-3568,1 51856U 22022E   22261.48044102 -.00000762  00000-0 -29817-4 0  9997,2 51856  53.2179 312.3366 0001520  65.5097 294.6054 15.08820656 31597,6917.94,95.439,540.856,538.753,0.0
51856.0,STARLINK-3568,PAYLOAD,2022-09-18 14:42:36,15.08821705,0.0001517,53.2178,311.7418,65.0626,295.0523,-2.4773e-05,-6.82e-06,0.0,0 STARLINK-3568,1 51856U 22022E   22261.61292147 -.00000682  00000-0 -24773-4 0  9993,2 51856  53.2178 311.7418 0001517  65.0626 295.0523 15.08821705 31611,6917.936,95.439,540.851,538.752,0.0
51856.0,STARLINK-3568,PAYLOAD,2022-09-19 03:25:41,15.08824328,0.0001515,53.2177,309.3629,63.2038,296.9109,4.5267e-05,4.32e-06,0.0,0 STARLINK-3568,1 51856U 22022E   22262.14284384  .00000432  00000-0  45267-4 0  9998,2 51856  53.2177 309.3629 0001515  63.2038 296.9109 15.08824328 31694,6917.928000000001,95.439,540.841,538.745,0.0
51856.0,STARLINK-3568,PAYLOAD,2022-09-19 09:47:14,15.08828939,0.000151,53.2177,308.1735,61.7207,298.3937,8.1522e-05,1.009e-05,0.0,0 STARLINK-3568,1 51856U 22022E   22262.40780240  .00001009  00000-0  81522-4 0  9994,2 51856  53.2177 308.1735 0001510  61.7207 298.3937 15.08828939 31737,6917.9140000000025,95.438,540.8240000000002,538.735,0.0
51856.0,STARLINK-3568,PAYLOAD,2022-09-19 14:33:23,15.08831467,0.0001551999999999,53.2176,307.2814,63.749,296.3661,9.8372e-05,1.278e-05,0.0,0 STARLINK-3568,1 51856U 22022E   22262.60652200  .00001278  00000-0  98372-4 0  9999,2 51856  53.2176 307.2814 0001552  63.7490 296.3661 15.08831467 31761,6917.906,95.438,540.845,538.698,0.0
51856.0,STARLINK-3568,PAYLOAD,2022-09-20 03:16:28,15.08840081,0.0001395999999999,53.2175,304.9026,64.669,295.4446,0.00010837,1.437e-05,0.0,0 STARLINK-3568,1 51856U 22022E   22263.13643814  .00001437  00000-0  10837-3 0  9995,2 51856  53.2175 304.9026 0001396  64.6690 295.4446 15.08840081 31849,6917.88,95.438,540.711,538.779,0.0
51856.0,STARLINK-3568,PAYLOAD,2022-09-20 09:37:59,15.08871027,0.0001793,53.2175,303.7132,58.199,301.9176,-0.0002867,-4.852e-05,0.0,0 STARLINK-3568,1 51856U 22022E   22263.40138325 -.00004852  00000-0 -28670-3 0  9991,2 51856  53.2175 303.7132 0001793  58.1990 301.9176 15.08871027 31887,6917.786,95.436,540.891,538.41,0.0
51856.0,STARLINK-3568,PAYLOAD,2022-09-20 14:24:10,15.08840896,0.0001659,53.2174,302.8211,64.6958,295.4206,0.00029481,4.407e-05,0.0,0 STARLINK-3568,1 51856U 22022E   22263.60011719  .00004407  00000-0  29481-3 0  9995,2 51856  53.2174 302.8211 0001659  64.6958 295.4206 15.08840896 31916,6917.878000000002,95.437,540.89,538.595,0.0
51856.0,STARLINK-3568,PAYLOAD,2022-09-21 19:01:06,15.08849702,0.0001196,53.2173,297.4668,79.0997,281.013,0.00012468,1.697e-05,0.0,0 STARLINK-3568,1 51856U 22022E   22264.79243116  .00001697  00000-0  12468-3 0  9999,2 51856  53.2173 297.4668 0001196  79.0997 281.0130 15.08849702 32091,6917.851,95.437,540.543,538.888,0.0
51856.0,STARLINK-3568,PAYLOAD,2022-09-22 12:30:20,15.08843735,0.0001585,53.2161,294.1983,65.4411,294.6746,-8.23e-05,-1.598e-05,0.0,0 STARLINK-3568,1 51856U 22022E   22265.52107046 -.00001598  00000-0 -82300-4 0  9997,2 51856  53.2161 294.1983 0001585  65.4411 294.6746 15.08843735 32200,6917.869000000002,95.437,540.83,538.637,0.0
51856.0,STARLINK-3568,PAYLOAD,2022-09-22 18:51:52,15.08844042,0.0001543,53.2165,293.0084,60.6403,299.4743,-9.964e-05,-1.874e-05,0.0,0 STARLINK-3568,1 51856U 22022E   22265.78602918 -.00001874  00000-0 -99640-4 0  9995,2 51856  53.2165 293.0084 0001543  60.6403 299.4743 15.08844042 32242,6917.868,95.437,540.8,538.6659999999998,0.0
51856.0,STARLINK-3568,PAYLOAD,2022-09-23 12:21:07,15.08846685,0.0001584,53.2163,289.7373,61.4171,298.698,0.00010452,1.376e-05,0.0,0 STARLINK-3568,1 51856U 22022E   22266.51466639  .00001376  00000-0  10452-3 0  9993,2 51856  53.2163 289.7373 0001584  61.4171 298.6980 15.08846685 32350,6917.86,95.437,540.821,538.629,0.0
51856.0,STARLINK-3568,PAYLOAD,2022-09-23 13:56:30,15.08848397,0.0001575,53.2162,289.4399,59.9418,300.173,0.00013741,1.9e-05,0.0,0 STARLINK-3568,1 51856U 22022E   22266.58090699  .00001900  00000-0  13741-3 0  9996,2 51856  53.2162 289.4399 0001575  59.9418 300.1730 15.08848397 32365,6917.855,95.437,540.809,538.63,0.0
51856.0,STARLINK-3568,PAYLOAD,2022-09-24 09:01:08,15.0884382,0.0001574,53.2161,285.8713,60.6684,299.4466,-2.5974e-05,-7.01e-06,0.0,0 STARLINK-3568,1 51856U 22022E   22267.37578795 -.00000701  00000-0 -25974-4 0  9994,2 51856  53.2161 285.8713 0001574  60.6684 299.4466 15.08843820 32482,6917.869000000002,95.437,540.823,538.645,0.0
51856.0,STARLINK-3568,PAYLOAD,2022-09-24 13:47:17,15.08841847,0.0001615,53.2161,284.9793,58.4359,301.6790000000001,5.9296e-05,6.56e-06,0.0,0 STARLINK-3568,1 51856U 22022E   22267.57450949  .00000656  00000-0  59296-4 0  9997,2 51856  53.2161 284.9793 0001615  58.4359 301.6790 15.08841847 32517,6917.875,95.437,540.857,538.623,0.0
51856.0,STARLINK-3568,PAYLOAD,2022-09-25 12:02:41,15.08839927,0.0001606,53.2159,280.816,59.3241,300.791,3.5035e-05,2.7000000000000004e-06,0.0,0 STARLINK-3568,1 51856U 22022E   22268.50186948  .00000270  00000-0  35035-4 0  9993,2 51856  53.2159 280.8160 0001606  59.3241 300.7910 15.08839927 32652,6917.880999999999,95.438,540.857,538.635,0.0
51856.0,STARLINK-3568,PAYLOAD,2022-09-25 18:24:13,15.08842512,0.0001541999999999,53.2158,279.6264,59.1301,300.9842,7.6197e-05,9.25e-06,0.0,0 STARLINK-3568,1 51856U 22022E   22268.76682821  .00000925  00000-0  76197-4 0  9993,2 51856  53.2158 279.6264 0001542  59.1301 300.9842 15.08842512 32690,6917.873000000001,95.437,540.804,538.6709999999998,0.0
51856.0,STARLINK-3568,PAYLOAD,2022-09-26 11:53:28,15.08832509,0.0001506,53.2157,276.3556,59.1907,300.9233,-2.1691e-05,-6.33e-06,0.0,0 STARLINK-3568,1 51856U 22022E   22269.49547279 -.00000633  00000-0 -21691-4 0  9998,2 51856  53.2157 276.3556 0001506  59.1907 300.9233 15.08832509 32801,6917.903,95.438,540.81,538.726,0.0
51856.0,STARLINK-3568,PAYLOAD,2022-09-27 11:44:16,15.08844902,0.0001663,53.2158,271.8948,59.4537,300.6619,0.00041682,6.353e-05,0.0,0 STARLINK-3568,1 51856U 22022E   22270.48907500  .00006353  00000-0  41682-3 0  9990,2 51856  53.2158 271.8948 0001663  59.4537 300.6619 15.08844902 32954,6917.865,95.437,540.881,538.58,0.0
51856.0,STARLINK-3568,PAYLOAD,2022-09-28 11:35:02,15.08846814,0.0001819,53.2165,267.4337,61.2055,298.9119,0.00021569,3.147e-05,0.0,0 STARLINK-3568,1 51856U 22022E   22271.48267271  .00003147  00000-0  21569-3 0  9995,2 51856  53.2165 267.4337 0001819  61.2055 298.9119 15.08846814 33100,6917.86,95.437,540.9830000000002,538.466,0.0
51856.0,STARLINK-3568,PAYLOAD,2022-09-29 03:28:54,15.08836636,0.0001718,53.2163,264.4602,65.2937,294.8234,-8.0102e-05,-1.563e-05,0.0,0 STARLINK-3568,1 51856U 22022E   22272.14507442 -.00001563  00000-0 -80102-4 0  9997,2 51856  53.2163 264.4602 0001718  65.2937 294.8234 15.08836636 33206,6917.891,95.438,540.944,538.567,0.0
51856.0,STARLINK-3568,PAYLOAD,2022-09-29 11:25:50,15.08839112,0.0001699999999999,53.2162,262.9736,64.1736,295.9431,5.5685e-05,5.98e-06,0.0,0 STARLINK-3568,1 51856U 22022E   22272.47627629  .00000598  00000-0  55685-4 0  9996,2 51856  53.2162 262.9736 0001700  64.1736 295.9431 15.08839112 33250,6917.8830000000025,95.438,540.924,538.572,0.0
51856.0,STARLINK-3568,PAYLOAD,2022-09-30 03:19:41,15.08849025,0.0001712,53.2163,259.9999,65.6007,294.5164,0.000105,1.384e-05,0.0,0 STARLINK-3568,1 51856U 22022E   22273.13867234  .00001384  00000-0  10500-3 0  9998,2 51856  53.2163 259.9999 0001712  65.6007 294.5164 15.08849025 33351,6917.853,95.437,540.9019999999998,538.533,0.0
51856.0,STARLINK-3568,PAYLOAD,2022-09-30 08:05:50,15.08852183,0.0001695,53.2162,259.1078,67.2163,292.9008,9.2121e-05,1.179e-05,0.0,0 STARLINK-3568,1 51856U 22022E   22273.33739050  .00001179  00000-0  92121-4 0  9996,2 51856  53.2162 259.1078 0001695  67.2163 292.9008 15.08852183 33382,6917.843000000003,95.437,540.881,538.536,0.0
51856.0,STARLINK-3568,PAYLOAD,2022-09-30 16:02:46,15.08840509,0.0001756,53.2162,257.6211,65.3586,294.7589,0.00018597,2.673e-05,0.0,0 STARLINK-3568,1 51856U 22022E   22273.66859743  .00002673  00000-0  18597-3 0  9998,2 51856  53.2162 257.6211 0001756  65.3586 294.7589 15.08840509 33439,6917.879,95.438,540.9590000000002,538.529,0.0
51856.0,STARLINK-3568,PAYLOAD,2022-10-01 07:56:37,15.08849975,0.0001756,53.2161,254.6465,59.8335,300.2831,0.00029849,4.467e-05,0.0,0 STARLINK-3568,1 51856U 22022E   22274.33099255  .00004467  00000-0  29849-3 0  9992,2 51856  53.2161 254.6465 0001756  59.8335 300.2831 15.08849975 33536,6917.85,95.437,540.93,538.5,0.0
51856.0,STARLINK-3568,PAYLOAD,2022-10-01 15:53:33,15.08843621,0.0001716,53.2161,253.1603,61.7797,298.3368,0.00014103,1.957e-05,0.0,0 STARLINK-3568,1 51856U 22022E   22274.66219495  .00001957  00000-0  14103-3 0  9996,2 51856  53.2161 253.1603 0001716  61.7797 298.3368 15.08843621 33583,6917.869000000002,95.437,540.9209999999998,538.547,0.0
